{
  "type": "FeatureCollection",
  "features": [
    {
      "type": "Feature",
      "properties": {
        "norad_id": 31664,
        "name": "FENGYUN 1C DEB",
        "group": "fengyun-1c-debris",
        "lat": -28.339832868513792,
        "lon": -25.89969387749042,
        "alt_km": 939.6491646116292,
        "timestamp": "2025-12-03T13:52:09.845431+00:00",
        "meta_object_name": "FENGYUN 1C DEB",
        "meta_object_id": "1999-025CBW",
        "meta_epoch": "2025-12-02T10:45:50.913216",
        "meta_mean_motion": 14.10276057,
        "meta_eccentricity": 0.01243906,
        "meta_inclination": 98.7516,
        "meta_ra_of_asc_node": 328.2354,
        "meta_arg_of_pericenter": 187.2678,
        "meta_mean_anomaly": 172.6694,
        "meta_ephemeris_type": 0,
        "meta_classification_type": "U",
        "meta_norad_cat_id": 31664,
        "meta_element_set_no": 999,
        "meta_rev_at_epoch": 95856,
        "meta_bstar": 0.0003664238,
        "meta_mean_motion_dot": 6.55e-06,
        "meta_mean_motion_ddot": 0,
        "tle_line1": "1 31664U 99025CBW 25336.44850594  .00000655  00000+0  36642-3 0  9992",
        "tle_line2": "2 31664  98.7516 328.2354 0124390 187.2678 172.6694 14.10276057958564"
      },
      "geometry": {
        "type": "Point",
        "coordinates": [
          -25.89969387749042,
          -28.339832868513792
        ]
      }
    },
    {
      "type": "Feature",
      "properties": {
        "norad_id": 31665,
        "name": "FENGYUN 1C DEB",
        "group": "fengyun-1c-debris",
        "lat": 64.87850183744045,
        "lon": -140.0734744787853,
        "alt_km": 958.1372663387592,
        "timestamp": "2025-12-03T13:52:09.845444+00:00",
        "meta_object_name": "FENGYUN 1C DEB",
        "meta_object_id": "1999-025CBX",
        "meta_epoch": "2025-11-29T13:55:45.257088",
        "meta_mean_motion": 13.84758836,
        "meta_eccentricity": 0.01900248,
        "meta_inclination": 98.4512,
        "meta_ra_of_asc_node": 17.8375,
        "meta_arg_of_pericenter": 222.9369,
        "meta_mean_anomaly": 135.6823,
        "meta_ephemeris_type": 0,
        "meta_classification_type": "U",
        "meta_norad_cat_id": 31665,
        "meta_element_set_no": 999,
        "meta_rev_at_epoch": 93009,
        "meta_bstar": 0.0012069056,
        "meta_mean_motion_dot": 1.525e-05,
        "meta_mean_motion_ddot": 0,
        "tle_line1": "1 31665U 99025CBX 25333.58038492  .00001525  00000+0  12069-2 0  9993",
        "tle_line2": "2 31665  98.4512  17.8375 0190024 222.9369 135.6823 13.84758836930094"
      },
      "geometry": {
        "type": "Point",
        "coordinates": [
          -140.0734744787853,
          64.87850183744045
        ]
      }
    },
    {
      "type": "Feature",
      "properties": {
        "norad_id": 31666,
        "name": "FENGYUN 1C DEB",
        "group": "fengyun-1c-debris",
        "lat": 4.374938645994748,
        "lon": -53.8405001676682,
        "alt_km": 604.502207377459,
        "timestamp": "2025-12-03T13:52:09.845455+00:00",
        "meta_object_name": "FENGYUN 1C DEB",
        "meta_object_id": "1999-025CBY",
        "meta_epoch": "2025-12-01T09:15:11.992608",
        "meta_mean_motion": 14.82644549,
        "meta_eccentricity": 0.00263225,
        "meta_inclination": 98.6562,
        "meta_ra_of_asc_node": 123.1201,
        "meta_arg_of_pericenter": 188.8412,
        "meta_mean_anomaly": 171.2339,
        "meta_ephemeris_type": 0,
        "meta_classification_type": "U",
        "meta_norad_cat_id": 31666,
        "meta_element_set_no": 999,
        "meta_rev_at_epoch": 97103,
        "meta_bstar": 0.0054771362,
        "meta_mean_motion_dot": 0.0004461,
        "meta_mean_motion_ddot": 0,
        "tle_line1": "1 31666U 99025CBY 25335.38555547  .00044610  00000+0  54771-2 0  9997",
        "tle_line2": "2 31666  98.6562 123.1201 0026322 188.8412 171.2339 14.82644549971030"
      },
      "geometry": {
        "type": "Point",
        "coordinates": [
          -53.8405001676682,
          4.374938645994748
        ]
      }
    },
    {
      "type": "Feature",
      "properties": {
        "norad_id": 31667,
        "name": "FENGYUN 1C DEB",
        "group": "fengyun-1c-debris",
        "lat": 78.03937744196209,
        "lon": 58.338538307496336,
        "alt_km": 770.6189878980758,
        "timestamp": "2025-12-03T13:52:09.845465+00:00",
        "meta_object_name": "FENGYUN 1C DEB",
        "meta_object_id": "1999-025CBZ",
        "meta_epoch": "2025-11-26T09:20:37.189248",
        "meta_mean_motion": 14.23473152,
        "meta_eccentricity": 0.00513712,
        "meta_inclination": 99.0861,
        "meta_ra_of_asc_node": 181.8566,
        "meta_arg_of_pericenter": 133.7405,
        "meta_mean_anomaly": 226.8042,
        "meta_ephemeris_type": 0,
        "meta_classification_type": "U",
        "meta_norad_cat_id": 31667,
        "meta_element_set_no": 999,
        "meta_rev_at_epoch": 55760,
        "meta_bstar": 0.0002979617,
        "meta_mean_motion_dot": 6.4e-06,
        "meta_mean_motion_ddot": 0,
        "tle_line1": "1 31667U 99025CBZ 25330.38931932  .00000640  00000+0  29796-3 0  9994",
        "tle_line2": "2 31667  99.0861 181.8566 0051371 133.7405 226.8042 14.23473152557602"
      },
      "geometry": {
        "type": "Point",
        "coordinates": [
          58.338538307496336,
          78.03937744196209
        ]
      }
    },
    {
      "type": "Feature",
      "properties": {
        "norad_id": 31672,
        "name": "FENGYUN 1C DEB",
        "group": "fengyun-1c-debris",
        "lat": -7.401474377713282,
        "lon": 165.76236843434418,
        "alt_km": 653.4175022958016,
        "timestamp": "2025-12-03T13:52:09.845476+00:00",
        "meta_object_name": "FENGYUN 1C DEB",
        "meta_object_id": "1999-025CCE",
        "meta_epoch": "2025-12-03T05:37:36.273504",
        "meta_mean_motion": 14.50722016,
        "meta_eccentricity": 0.0108218,
        "meta_inclination": 98.9573,
        "meta_ra_of_asc_node": 164.223,
        "meta_arg_of_pericenter": 10.2835,
        "meta_mean_anomaly": 350.0536,
        "meta_ephemeris_type": 0,
        "meta_classification_type": "U",
        "meta_norad_cat_id": 31672,
        "meta_element_set_no": 999,
        "meta_rev_at_epoch": 64733,
        "meta_bstar": 0.0019390489,
        "meta_mean_motion_dot": 8.176e-05,
        "meta_mean_motion_ddot": 0,
        "tle_line1": "1 31672U 99025CCE 25337.23444761  .00008176  00000+0  19390-2 0  9990",
        "tle_line2": "2 31672  98.9573 164.2230 0108218  10.2835 350.0536 14.50722016647332"
      },
      "geometry": {
        "type": "Point",
        "coordinates": [
          165.76236843434418,
          -7.401474377713282
        ]
      }
    },
    {
      "type": "Feature",
      "properties": {
        "norad_id": 31673,
        "name": "FENGYUN 1C DEB",
        "group": "fengyun-1c-debris",
        "lat": -64.82471971327428,
        "lon": -29.26087921946131,
        "alt_km": 881.6006500014837,
        "timestamp": "2025-12-03T13:52:09.845486+00:00",
        "meta_object_name": "FENGYUN 1C DEB",
        "meta_object_id": "1999-025CCF",
        "meta_epoch": "2025-12-01T12:05:46.557312",
        "meta_mean_motion": 14.31920513,
        "meta_eccentricity": 0.01258857,
        "meta_inclination": 99.374,
        "meta_ra_of_asc_node": 169.0754,
        "meta_arg_of_pericenter": 81.1692,
        "meta_mean_anomaly": 280.3719,
        "meta_ephemeris_type": 0,
        "meta_classification_type": "U",
        "meta_norad_cat_id": 31673,
        "meta_element_set_no": 999,
        "meta_rev_at_epoch": 64730,
        "meta_bstar": 0.00025702529,
        "meta_mean_motion_dot": 7e-06,
        "meta_mean_motion_ddot": 0,
        "tle_line1": "1 31673U 99025CCF 25335.50401108  .00000700  00000+0  25703-3 0  9998",
        "tle_line2": "2 31673  99.3740 169.0754 0125885  81.1692 280.3719 14.31920513647301"
      },
      "geometry": {
        "type": "Point",
        "coordinates": [
          -29.26087921946131,
          -64.82471971327428
        ]
      }
    },
    {
      "type": "Feature",
      "properties": {
        "norad_id": 31674,
        "name": "FENGYUN 1C DEB",
        "group": "fengyun-1c-debris",
        "lat": 78.66592363919457,
        "lon": -38.32508083749486,
        "alt_km": 723.8447737710358,
        "timestamp": "2025-12-03T13:52:09.845497+00:00",
        "meta_object_name": "FENGYUN 1C DEB",
        "meta_object_id": "1999-025CCG",
        "meta_epoch": "2025-11-28T07:44:59.944992",
        "meta_mean_motion": 14.51401416,
        "meta_eccentricity": 0.00238859,
        "meta_inclination": 98.9271,
        "meta_ra_of_asc_node": 7.7446,
        "meta_arg_of_pericenter": 330.337,
        "meta_mean_anomaly": 29.6468,
        "meta_ephemeris_type": 0,
        "meta_classification_type": "U",
        "meta_norad_cat_id": 31674,
        "meta_element_set_no": 999,
        "meta_rev_at_epoch": 64405,
        "meta_bstar": 0.0028928695,
        "meta_mean_motion_dot": 0.00011549,
        "meta_mean_motion_ddot": 0,
        "tle_line1": "1 31674U 99025CCG 25332.32291603  .00011549  00000+0  28929-2 0  9998",
        "tle_line2": "2 31674  98.9271   7.7446 0023885 330.3370  29.6468 14.51401416644053"
      },
      "geometry": {
        "type": "Point",
        "coordinates": [
          -38.32508083749486,
          78.66592363919457
        ]
      }
    }
  ]
}